ONEWEB-0208             
1 48243U 21031AK  25227.62316594  .00000116  00000+0  27723-3 0  9993
2 48243  87.9082 350.5142 0001645  97.4338 262.6978 13.14502436208163
ONEWEB-0200             
1 48244U 21031AL  25227.89116605 -.00000077  00000+0 -24283-3 0  9990
2 48244  87.9087 350.4520 0001740  98.6584 261.4743 13.14501255208121
ONEWEB-0217             
1 48245U 21031AM  25227.90702076 -.00000237  00000+0 -67477-3 0  9996
2 48245  87.9085 350.4337 0001547  95.7753 264.3553 13.14502651208073
ONEWEB-0211             
1 48767U 21045A   25227.50252834  .00000103  00000+0  23843-3 0  9997
2 48767  87.9080 320.1092 0001833  89.2104 270.9237 13.16084532204236
ONEWEB-0223             
1 48768U 21045B   25227.51886066 -.00000124  00000+0 -36236-3 0  9994
2 48768  87.9071 320.1570 0001881  83.7702 276.3643 13.15548640204217
ONEWEB-0230             
1 48769U 21045C   25227.49034799  .00000147  00000+0  35765-3 0  9999
2 48769  87.9067 320.1974 0002091  99.8940 260.2426 13.15549372205582
ONEWEB-0237             
1 48770U 21045D   25227.70742197  .00000130  00000+0  31049-3 0  9996
2 48770  87.9088 320.1439 0001942  89.2996 270.8357 13.15549450204228
ONEWEB-0235             
1 48771U 21045E   25227.52994119 -.00000041  00000+0 -14371-3 0  9992
2 48771  87.9079 320.1549 0002051  82.1041 278.0322 13.15550362204198
ONEWEB-0242             
1 48772U 21045F   25227.52361152 -.00000064  00000+0 -20522-3 0  9998
2 48772  87.9079 320.1409 0002060  93.6111 266.5255 13.15548265204230
ONEWEB-0241             
1 48773U 21045G   25227.51092612 -.00000317  00000+0 -87609-3 0  9990
2 48773  87.9066 320.1952 0001606  87.7733 272.3581 13.15548319204146
ONEWEB-0243             
1 48774U 21045H   25227.54263224  .00000184  00000+0  45518-3 0  9996
2 48774  87.9083 320.1861 0002067  85.7784 274.3583 13.15549046204176
ONEWEB-0222             
1 48775U 21045J   25227.52598958 -.00000007  00000+0 -52947-4 0  9991
2 48775  87.9075 320.1436 0001823  94.1829 265.9509 13.15550385204216
ONEWEB-0244             
1 48776U 21045K   25227.55213858  .00000227  00000+0  56928-3 0  9992
2 48776  87.9079 320.1193 0002095  95.2340 264.9030 13.15549162204784
ONEWEB-0247             
1 48777U 21045L   25227.54898135  .00000187  00000+0  46236-3 0  9995
2 48777  87.9069 320.1921 0002270  72.6465 287.4913 13.15547730204223
ONEWEB-0245             
1 48778U 21045M   25227.54421687  .00000149  00000+0  36217-3 0  9996
2 48778  87.9070 320.1563 0001730  95.3219 264.8109 13.15548465204195
ONEWEB-0229             
1 48779U 21045N   25227.53946385  .00000033  00000+0  52696-4 0  9995
2 48779  87.9072 320.1570 0002059  95.2042 264.9323 13.15548104204227
ONEWEB-0228             
1 48780U 21045P   25227.49682363  .00004235  00000+0  11214-1 0  9991
2 48780  87.9080 320.1392 0002655  91.3114 268.8320 13.15527266204135
ONEWEB-0232             
1 48781U 21045Q   25227.54738890  .00000280  00000+0  70943-3 0  9997
2 48781  87.9071 320.1230 0001968  97.5482 262.5872 13.15549980204465
ONEWEB-0231             
1 48782U 21045R   25227.29701306 -.00000088  00000+0 -26673-3 0  9991
2 48782  87.9068 320.2257 0002007  89.9451 270.1909 13.15546848204127
ONEWEB-0234             
1 48783U 21045S   25227.71520758  .00000079  00000+0  17695-3 0  9991
2 48783  87.9074 320.1101 0001378 124.3480 235.7780 13.15546379204312
ONEWEB-0238             
1 48784U 21045T   25227.48730808  .00000222  00000+0  55491-3 0  9991
2 48784  87.9071 320.1523 0001695 107.7886 252.3429 13.15547668205313
ONEWEB-0240             
1 48785U 21045U   25227.28038074 -.00000008  00000+0 -55906-4 0  9992
2 48785  87.9079 320.1762 0001649  90.0116 270.1203 13.15550611204180
ONEWEB-0246             
1 48786U 21045V   25227.50300500  .00000041  00000+0  74845-4 0  9992
2 48786  87.9083 320.1439 0002048  94.5201 265.6164 13.15547442205202
ONEWEB-0210             
1 48787U 21045W   25227.55372139  .00000205  00000+0  51040-3 0  9998
2 48787  87.9079 320.1332 0002335  82.7564 277.3832 13.15548894204135
ONEWEB-0214             
1 48788U 21045X   25227.25821898  .00000145  00000+0  34984-3 0  9998
2 48788  87.9078 320.1803 0002305  90.3072 269.8322 13.15550070204065
ONEWEB-0221             
1 48789U 21045Y   25227.64563398  .00000052  00000+0  10476-3 0  9997
2 48789  87.9070 320.1314 0001908  91.8289 268.3060 13.15548008204206
ONEWEB-0213             
1 48790U 21045Z   25227.71059306  .00000126  00000+0  30116-3 0  9991
2 48790  87.9074 320.1262 0002004  90.6306 269.5054 13.15548399204275
ONEWEB-0212             
1 48791U 21045AA  25227.53548878  .00000073  00000+0  15939-3 0  9996
2 48791  87.9073 320.1432 0001919  99.7354 260.3993 13.15551085204245
ONEWEB-0227             
1 48792U 21045AB  25227.68680974  .00000004  00000+0 -23890-4 0  9998
2 48792  87.9070 320.1325 0001880  94.2539 265.8806 13.15549351204219
ONEWEB-0226             
1 48793U 21045AC  25227.30020050 -.00000020  00000+0 -87784-4 0  9992
2 48793  87.9087 320.2157 0002264  93.7133 266.4256 13.15543682204131
ONEWEB-0224             
1 48794U 21045AD  25227.49191200  .00000149  00000+0  36112-3 0  9997
2 48794  87.9077 320.2131 0000974  87.2770 272.8472 13.15547125204085
ONEWEB-0233             
1 48795U 21045AE  25227.49653272  .00000146  00000+0  35379-3 0  9991
2 48795  87.9086 320.2217 0001682  88.7857 271.3466 13.15537933205219
ONEWEB-0190             
1 48796U 21045AF  25227.56006942  .00000146  00000+0  35396-3 0  9995
2 48796  87.9080 320.1733 0002012  74.5656 285.5696 13.15547885204188
ONEWEB-0236             
1 48797U 21045AG  25227.50144222  .00000047  00000+0  89773-4 0  9993
2 48797  87.9083 320.1950 0001903 102.4288 257.7055 13.15548995204063
ONEWEB-0248             
1 48798U 21045AH  25227.51410394 -.00000072  00000+0 -22469-3 0  9999
2 48798  87.9079 320.1460 0001505  81.1813 278.9488 13.15547756205341
ONEWEB-0225             
1 48799U 21045AJ  25227.68840705  .00000022  00000+0  23432-4 0  9996
2 48799  87.9076 320.1435 0001959  79.3204 280.8147 13.15546927204259
ONEWEB-0215             
1 48800U 21045AK  25227.65829276 -.00000059  00000+0 -19115-3 0  9990
2 48800  87.9082 320.0999 0001729  76.4122 283.7201 13.15549063204128
ONEWEB-0216             
1 48801U 21045AL  25227.66781813 -.00000135  00000+0 -39361-3 0  9996
2 48801  87.9070 320.1421 0002126  96.2555 263.8818 13.15548192204135
ONEWEB-0239             
1 48802U 21045AM  25227.52044840 -.00000135  00000+0 -39176-3 0  9998
2 48802  87.9074 320.1847 0001445  74.4824 285.6466 13.15548083204154
ONEWEB-0249             
1 48967U 21060A   25227.92430717  .00000051  00000+0  98656-4 0  9997
2 48967  87.9027 289.6294 0001899  96.5853 263.5494 13.16593042199446
ONEWEB-0250             
1 48968U 21060B   25227.88703388 -.00000045  00000+0 -13314-3 0  9992
2 48968  87.9024 288.3929 0001038 100.3770 259.7483 13.25811522199768
ONEWEB-0252             
1 48970U 21060D   25227.87997698 -.00000033  00000+0 -12122-3 0  9996
2 48970  87.9028 289.6313 0002373  96.3525 263.7877 13.16593116199488
ONEWEB-0253             
1 48971U 21060E   25227.86888449 -.00000008  00000+0 -55368-4 0  9991
2 48971  87.9026 289.6369 0001960  89.4423 270.6932 13.16592536199416
ONEWEB-0254             
1 48972U 21060F   25227.87838270 -.00000040  00000+0 -13863-3 0  9999
2 48972  87.9031 289.6212 0001738  85.5718 274.5611 13.16596262199414
ONEWEB-0255             
1 48973U 21060G   25227.91638639  .00000040  00000+0  71936-4 0  9996
2 48973  87.9020 289.6427 0001880  89.1873 270.9473 13.16592389199491
ONEWEB-0256             
1 48974U 21060H   25227.86651501  .00000027  00000+0  36263-4 0  9993
2 48974  87.9021 289.6632 0002138  97.4999 262.6375 13.16593831199457
ONEWEB-0257             
1 48975U 21060J   25227.89897218 -.00000091  00000+0 -27060-3 0  9991
2 48975  87.9025 289.6244 0002043  90.1785 269.9580 13.16592338199414
ONEWEB-0258             
1 48976U 21060K   25227.90056448 -.00000063  00000+0 -19719-3 0  9997
2 48976  87.9023 289.6482 0001956  97.4207 262.7146 13.16593716199429
ONEWEB-0259             
1 48977U 21060L   25227.89422181 -.00000128  00000+0 -36959-3 0  9994
2 48977  87.9028 289.6346 0001889  92.4469 267.6879 13.16592564199454
ONEWEB-0260             
1 48978U 21060M   25227.88551634 -.00000102  00000+0 -30025-3 0  9990
2 48978  87.9020 289.6610 0002539  94.3131 265.8290 13.16593511199439
ONEWEB-0261             
1 48979U 21060N   25227.93142142  .00000094  00000+0  21258-3 0  9993
2 48979  87.9022 289.6536 0002135  84.1244 276.0131 13.16594987199495
ONEWEB-0262             
1 48980U 21060P   25227.91165233  .00000035  00000+0  57370-4 0  9999
2 48980  87.9024 289.6202 0001718  92.1867 267.9460 13.16594052199458
ONEWEB-0263             
1 48981U 21060Q   25227.86731509 -.00000024  00000+0 -97694-4 0  9992
2 48981  87.9023 289.6523 0001895  82.2374 277.8972 13.16595074199412
ONEWEB-0264             
1 48982U 21060R   25227.90454805 -.00002080  00000+0 -54777-2 0  9996
2 48982  87.9009 289.6491 0001612  91.2708 268.8607 13.16578419199429
ONEWEB-0266             
1 48984U 21060T   25227.92589392  .00000081  00000+0  17707-3 0  9990
2 48984  87.9025 289.6214 0001834  99.4965 260.6374 13.16594139199410
ONEWEB-0267             
1 48985U 21060U   25227.40499523  .00000058  00000+0  11812-3 0  9995
2 48985  87.9028 289.7275 0002056  88.5621 271.5745 13.16594632200646
ONEWEB-0268             
1 48986U 21060V   25227.90530119 -.00000024  00000+0 -96952-4 0  9992
2 48986  87.9024 289.6338 0002122  95.1814 264.9559 13.16592974199681
ONEWEB-0269             
1 48987U 21060W   25227.88628847 -.00000046  00000+0 -15296-3 0  9991
2 48987  87.9023 289.6695 0002104  99.8702 260.2667 13.16592399199459
ONEWEB-0270             
1 48988U 21060X   25227.90372035 -.00000033  00000+0 -12006-3 0  9992
2 48988  87.9024 289.6361 0001843  83.6046 276.5295 13.16592706199495
